<?xml version="1.0" encoding="UTF-8"?>
<kml xmlns="http://www.opengis.net/kml/2.2">
  <Document>
    <name>Untitled layer</name>
    <Style id="line-000000-1000-nodesc-normal">
      <LineStyle>
        <color>ff000000</color>
        <width>1</width>
      </LineStyle>
      <BalloonStyle>
        <text><![CDATA[<h3>$[name]</h3>]]></text>
      </BalloonStyle>
    </Style>
    <Style id="line-000000-1000-nodesc-highlight">
      <LineStyle>
        <color>ff000000</color>
        <width>1.5</width>
      </LineStyle>
      <BalloonStyle>
        <text><![CDATA[<h3>$[name]</h3>]]></text>
      </BalloonStyle>
    </Style>
    <StyleMap id="line-000000-1000-nodesc">
      <Pair>
        <key>normal</key>
        <styleUrl>#line-000000-1000-nodesc-normal</styleUrl>
      </Pair>
      <Pair>
        <key>highlight</key>
        <styleUrl>#line-000000-1000-nodesc-highlight</styleUrl>
      </Pair>
    </StyleMap>
    <Style id="poly-990000-1000-119-nodesc-normal">
      <LineStyle>
        <color>ff000099</color>
        <width>1</width>
      </LineStyle>
      <PolyStyle>
        <color>77000099</color>
        <fill>1</fill>
        <outline>1</outline>
      </PolyStyle>
      <BalloonStyle>
        <text><![CDATA[<h3>$[name]</h3>]]></text>
      </BalloonStyle>
    </Style>
    <Style id="poly-990000-1000-119-nodesc-highlight">
      <LineStyle>
        <color>ff000099</color>
        <width>1.5</width>
      </LineStyle>
      <PolyStyle>
        <color>77000099</color>
        <fill>1</fill>
        <outline>1</outline>
      </PolyStyle>
      <BalloonStyle>
        <text><![CDATA[<h3>$[name]</h3>]]></text>
      </BalloonStyle>
    </Style>
    <StyleMap id="poly-990000-1000-119-nodesc">
      <Pair>
        <key>normal</key>
        <styleUrl>#poly-990000-1000-119-nodesc-normal</styleUrl>
      </Pair>
      <Pair>
        <key>highlight</key>
        <styleUrl>#poly-990000-1000-119-nodesc-highlight</styleUrl>
      </Pair>
    </StyleMap>
    <Style id="poly-CC0000-1000-119-nodesc-normal">
      <LineStyle>
        <color>ff0000cc</color>
        <width>1</width>
      </LineStyle>
      <PolyStyle>
        <color>770000cc</color>
        <fill>1</fill>
        <outline>1</outline>
      </PolyStyle>
      <BalloonStyle>
        <text><![CDATA[<h3>$[name]</h3>]]></text>
      </BalloonStyle>
    </Style>
    <Style id="poly-CC0000-1000-119-nodesc-highlight">
      <LineStyle>
        <color>ff0000cc</color>
        <width>1.5</width>
      </LineStyle>
      <PolyStyle>
        <color>770000cc</color>
        <fill>1</fill>
        <outline>1</outline>
      </PolyStyle>
      <BalloonStyle>
        <text><![CDATA[<h3>$[name]</h3>]]></text>
      </BalloonStyle>
    </Style>
    <StyleMap id="poly-CC0000-1000-119-nodesc">
      <Pair>
        <key>normal</key>
        <styleUrl>#poly-CC0000-1000-119-nodesc-normal</styleUrl>
      </Pair>
      <Pair>
        <key>highlight</key>
        <styleUrl>#poly-CC0000-1000-119-nodesc-highlight</styleUrl>
      </Pair>
    </StyleMap>
    <Style id="poly-FF0000-1000-119-nodesc-normal">
      <LineStyle>
        <color>ff0000ff</color>
        <width>1</width>
      </LineStyle>
      <PolyStyle>
        <color>770000ff</color>
        <fill>1</fill>
        <outline>1</outline>
      </PolyStyle>
      <BalloonStyle>
        <text><![CDATA[<h3>$[name]</h3>]]></text>
      </BalloonStyle>
    </Style>
    <Style id="poly-FF0000-1000-119-nodesc-highlight">
      <LineStyle>
        <color>ff0000ff</color>
        <width>1.5</width>
      </LineStyle>
      <PolyStyle>
        <color>770000ff</color>
        <fill>1</fill>
        <outline>1</outline>
      </PolyStyle>
      <BalloonStyle>
        <text><![CDATA[<h3>$[name]</h3>]]></text>
      </BalloonStyle>
    </Style>
    <StyleMap id="poly-FF0000-1000-119-nodesc">
      <Pair>
        <key>normal</key>
        <styleUrl>#poly-FF0000-1000-119-nodesc-normal</styleUrl>
      </Pair>
      <Pair>
        <key>highlight</key>
        <styleUrl>#poly-FF0000-1000-119-nodesc-highlight</styleUrl>
      </Pair>
    </StyleMap>
    <Placemark>
      <name>Path</name>
      <styleUrl>#line-000000-1000-nodesc</styleUrl>
      <LineString>
        <tessellate>1</tessellate>
        <coordinates>
          13.367978,52.625424,0
          13.378299,52.610401,0
          13.373954,52.602825,0
          13.367326,52.596215,0
          13.361495,52.590732,0
          13.348108,52.589957,0
          13.365092,52.580915,0
          13.375606,52.575746,0
          13.37833,52.573276,0
          13.384491,52.571972,0
          13.389979,52.568872,0
          13.389744,52.567376,0
          13.396859,52.561186,0
          13.397547,52.555346,0
          13.400052,52.548232,0
          13.401869,52.543057,0
          13.403721,52.540335,0
          13.395174,52.537776,0
          13.390121,52.535117,0
          13.387953,52.532002,0
          13.379618,52.539736,0
          13.374731,52.536877,0
          13.3731,52.537864,0
          13.367662,52.535401,0
          13.371292,52.531015,0
          13.37413,52.527819,0
          13.374129,52.526738,0
          13.371657,52.52605,0
          13.372567,52.523089,0
          13.375646,52.522304,0
          13.376735,52.519944,0
          13.377025,52.518352,0
          13.377473,52.516864,0
          13.376962,52.513551,0
          13.376403,52.51153,0
          13.376597,52.509288,0
          13.379723,52.50699,0
          13.398228,52.507937,0
          13.400597,52.509562,0
          13.403929,52.508075,0
          13.405928,52.508076,0
          13.40815,52.506318,0
          13.409927,52.506318,0
          13.411705,52.504425,0
          13.41414,52.504013,0
          13.41519,52.504768,0
          13.417414,52.504331,0
          13.419509,52.505606,0
          13.421802,52.505008,0
          13.425276,52.505246,0
          13.428158,52.50692,0
          13.429344,52.508395,0
          13.436292,52.504963,0
          13.444028,52.501769,0
          13.452277,52.498419,0
          13.452414,52.497565,0
          13.447216,52.49475,0
          13.445672,52.494665,0
          13.439771,52.489637,0
          13.444401,52.487836,0
          13.447354,52.489279,0
          13.450437,52.487657,0
          13.455627,52.484578,0
          13.458159,52.485854,0
          13.470645,52.476868,0
          13.469238,52.473827,0
          13.478893,52.464854,0
          13.477483,52.462466,0
          13.475668,52.460153,0
          13.474967,52.45887,0
          13.458106,52.459166,0
          13.46304,52.450838,0
          13.464581,52.449641,0
          13.507049,52.429151,0
          13.513638,52.427261,0
          13.520922,52.426658,0
          13.518501,52.422661,0
          13.520725,52.420703,0
          13.520699,52.419864,0
          13.523343,52.417307,0
          13.524039,52.412732,0
          13.522363,52.407778,0
          13.520265,52.405044,0
          13.516745,52.401809,0
        </coordinates>
      </LineString>
    </Placemark>
    <Placemark>
      <name>Flaeche</name>
      <styleUrl>#poly-FF0000-1000-119-nodesc</styleUrl>
      <MultiGeometry>
        <Polygon>
          <outerBoundaryIs>
            <LinearRing>
              <tessellate>1</tessellate>
              <coordinates>
                13.426224,52.506203,0
                13.4270488,52.5069828,0
                13.4250481,52.5058476,0
                13.426224,52.506203,0
              </coordinates>
            </LinearRing>
          </outerBoundaryIs>
        </Polygon>
        <Polygon>
          <outerBoundaryIs>
            <LinearRing>
              <tessellate>1</tessellate>
              <coordinates>
                13.428729,52.507936,0
                13.429299,52.508506,0
                13.435318,52.505656,0
                13.437124,52.504507,0
                13.438429,52.503922,0
                13.44134,52.502943,0
                13.446725,52.500449,0
                13.449658,52.499516,0
                13.450557,52.498723,0
                13.451406,52.498967,0
                13.453363,52.497574,0
                13.451377,52.497358,0
                13.448149,52.495071,0
                13.4474,52.494691,0
                13.446162,52.49474,0
                13.445482,52.494659,0
                13.445024,52.494482,0
                13.440076,52.490668,0
                13.439707,52.48984,0
                13.444399,52.487411,0
                13.446718,52.488928,0
                13.450262,52.487105,0
                13.450419,52.4872,0
                13.456102,52.48424,0
                13.458211,52.48578,0
                13.461224,52.483688,0
                13.461112,52.483613,0
                13.470631,52.476875,0
                13.469621,52.473714,0
                13.470566,52.472455,0
                13.475318,52.467825,0
                13.47647,52.467101,0
                13.478455,52.465135,0
                13.478574,52.463953,0
                13.477187,52.461944,0
                13.475869,52.460948,0
                13.474963,52.459468,0
                13.474905,52.458762,0
                13.457411,52.459272,0
                13.457576,52.458303,0
                13.459321,52.456019,0
                13.461514,52.452804,0
                13.46267,52.451356,0
                13.46436,52.449887,0
                13.467199,52.448302,0
                13.484193,52.440083,0
                13.484683,52.439973,0
                13.489091,52.437803,0
                13.489424,52.437517,0
                13.494525,52.435014,0
                13.494859,52.434939,0
                13.506971,52.429032,0
                13.508826,52.42838,0
                13.512843,52.427386,0
                13.516421,52.426906,0
                13.520631,52.426518,0
                13.519649,52.424572,0
                13.518464,52.422879,0
                13.518686,52.422217,0
                13.520608,52.420781,0
                13.520875,52.419585,0
                13.522198,52.418441,0
                13.522155,52.417186,0
                13.523016,52.415484,0
                13.522249,52.41446,0
                13.524048,52.413578,0
                13.523003,52.412161,0
                13.523527,52.411694,0
                13.521752,52.40745,0
                13.520659,52.406245,0
                13.519028,52.40512,0
                13.518751,52.404653,0
                13.516572,52.403279,0
                13.516914,52.4028,0
                13.515914,52.401774,0
                13.517102,52.401513,0
                13.522095,52.405802,0
                13.521594,52.406172,0
                13.522616,52.407618,0
                13.523385,52.409786,0
                13.523922,52.409743,0
                13.525134,52.41339,0
                13.524736,52.413506,0
                13.523866,52.418177,0
                13.52123,52.420218,0
                13.520967,52.421048,0
                13.519231,52.422732,0
                13.521976,52.426449,0
                13.52175,52.42696,0
                13.516672,52.427251,0
                13.514718,52.427451,0
                13.511392,52.428038,0
                13.508225,52.428947,0
                13.506839,52.429551,0
                13.495206,52.43528,0
                13.484814,52.44025,0
                13.47348,52.445797,0
                13.46631,52.449155,0
                13.464367,52.450257,0
                13.46351,52.451131,0
                13.460403,52.455229,0
                13.457745,52.459019,0
                13.474514,52.458427,0
                13.478669,52.458349,0
                13.47923,52.459234,0
                13.478813,52.459674,0
                13.476745,52.459849,0
                13.476085,52.460317,0
                13.477039,52.461446,0
                13.477965,52.461547,0
                13.479391,52.461169,0
                13.478561,52.461835,0
                13.478349,52.462894,0
                13.478947,52.463735,0
                13.4795,52.463847,0
                13.479397,52.46513,0
                13.479016,52.465578,0
                13.47481,52.468885,0
                13.47488,52.468959,0
                13.470411,52.473378,0
                13.47022,52.474112,0
                13.470875,52.475707,0
                13.471031,52.477121,0
                13.464506,52.481674,0
                13.464595,52.481812,0
                13.458144,52.486221,0
                13.456584,52.485628,0
                13.455529,52.484858,0
                13.450739,52.487233,0
                13.451155,52.487626,0
                13.448138,52.489369,0
                13.447367,52.489637,0
                13.444898,52.487995,0
                13.443682,52.488281,0
                13.440507,52.489972,0
                13.444808,52.493958,0
                13.445193,52.493824,0
                13.446326,52.494483,0
                13.447214,52.493853,0
                13.448281,52.494486,0
                13.449312,52.493882,0
                13.4513,52.494844,0
                13.452744,52.496173,0
                13.453912,52.495895,0
                13.454332,52.49631,0
                13.453059,52.496804,0
                13.453619,52.49755,0
                13.456271,52.497137,0
                13.4563,52.499156,0
                13.44948,52.501192,0
                13.449668,52.501346,0
                13.445375,52.502682,0
                13.445524,52.502858,0
                13.439834,52.504873,0
                13.438845,52.505276,0
                13.437952,52.505819,0
                13.435241,52.507949,0
                13.432542,52.508592,0
                13.427986,52.51046,0
                13.425972,52.510249,0
                13.428161,52.508747,0
                13.427452,52.507364,0
                13.4270488,52.5069828,0
                13.428729,52.507936,0
              </coordinates>
            </LinearRing>
          </outerBoundaryIs>
        </Polygon>
        <Polygon>
          <outerBoundaryIs>
            <LinearRing>
              <tessellate>1</tessellate>
              <coordinates>
                13.4250481,52.5058476,0
                13.423944,52.505514,0
                13.422205,52.5055,0
                13.419818,52.506054,0
                13.418214,52.506064,0
                13.416971,52.505575,0
                13.414306,52.505279,0
                13.413386,52.50456,0
                13.412177,52.504981,0
                13.413306,52.506541,0
                13.412555,52.507539,0
                13.411455,52.506646,0
                13.409669,52.507622,0
                13.408379,52.506921,0
                13.406285,52.509098,0
                13.405294,52.508494,0
                13.404719,52.508959,0
                13.405118,52.509414,0
                13.401662,52.509624,0
                13.401337,52.50977,0
                13.398783,52.50951,0
                13.397075,52.508164,0
                13.39026,52.507834,0
                13.382479,52.507398,0
                13.37902,52.50741,0
                13.377805,52.508357,0
                13.378033,52.509149,0
                13.379902,52.510453,0
                13.379588,52.512297,0
                13.380598,52.512469,0
                13.37932,52.515843,0
                13.379806,52.515879,0
                13.379684,52.516949,0
                13.377752,52.516972,0
                13.377422,52.517806,0
                13.377578,52.519166,0
                13.380145,52.518868,0
                13.380406,52.519743,0
                13.37799,52.519951,0
                13.378089,52.52047,0
                13.37753,52.521794,0
                13.378299,52.522076,0
                13.377203,52.52277,0
                13.375622,52.524392,0
                13.374047,52.525251,0
                13.374028,52.525964,0
                13.374866,52.527072,0
                13.37462,52.527948,0
                13.376466,52.528399,0
                13.37624,52.528666,0
                13.374095,52.528053,0
                13.372524,52.529619,0
                13.371818,52.531493,0
                13.370002,52.533125,0
                13.370231,52.533239,0
                13.368595,52.534598,0
                13.369117,52.535577,0
                13.37284,52.537381,0
                13.374277,52.536665,0
                13.375456,52.536461,0
                13.37761,52.537187,0
                13.376867,52.537697,0
                13.377041,52.53813,0
                13.37929,52.539418,0
                13.379657,52.539218,0
                13.380688,52.53695,0
                13.381549,52.53575,0
                13.382055,52.535962,0
                13.388462,52.531749,0
                13.389113,52.532201,0
                13.388687,52.532759,0
                13.390751,52.535011,0
                13.392845,52.536258,0
                13.393877,52.537184,0
                13.394659,52.537439,0
                13.395264,52.537451,0
                13.402199,52.539394,0
                13.404547,52.539976,0
                13.404282,52.542178,0
                13.403639,52.544134,0
                13.402069,52.546519,0
                13.401311,52.546557,0
                13.400238,52.549492,0
                13.400013,52.55068,0
                13.400272,52.551251,0
                13.39913,52.553238,0
                13.39906,52.553704,0
                13.402569,52.553756,0
                13.402547,52.554781,0
                13.398904,52.554999,0
                13.399036,52.557362,0
                13.39933,52.558549,0
                13.400715,52.55997,0
                13.403688,52.561621,0
                13.403104,52.562004,0
                13.401855,52.561338,0
                13.400004,52.561178,0
                13.398355,52.561398,0
                13.397323,52.561795,0
                13.393666,52.564996,0
                13.39004,52.567372,0
                13.390677,52.568347,0
                13.389069,52.56923,0
                13.389331,52.569407,0
                13.384253,52.572227,0
                13.382746,52.572703,0
                13.382197,52.572489,0
                13.380754,52.57325,0
                13.378827,52.573814,0
                13.377161,52.574847,0
                13.376049,52.576146,0
                13.370902,52.578427,0
                13.359624,52.584297,0
                13.35453,52.587291,0
                13.349945,52.589895,0
                13.351533,52.590271,0
                13.35562,52.590209,0
                13.359265,52.590406,0
                13.36285,52.591425,0
                13.362868,52.592049,0
                13.364286,52.593028,0
                13.365077,52.594344,0
                13.36675,52.594442,0
                13.367561,52.596121,0
                13.369466,52.597306,0
                13.371807,52.599359,0
                13.374201,52.602274,0
                13.37536,52.604342,0
                13.375221,52.604443,0
                13.377729,52.607738,0
                13.378256,52.608698,0
                13.379021,52.611133,0
                13.377467,52.613308,0
                13.374725,52.618236,0
                13.373804,52.619745,0
                13.371729,52.622153,0
                13.371166,52.622316,0
                13.368064,52.62544,0
                13.367817,52.625906,0
                13.36679,52.625576,0
                13.367855,52.624055,0
                13.371507,52.619988,0
                13.375305,52.614296,0
                13.375731,52.613432,0
                13.376419,52.611056,0
                13.376494,52.609174,0
                13.376332,52.607709,0
                13.370343,52.599106,0
                13.363854,52.593981,0
                13.360793,52.591351,0
                13.359411,52.591181,0
                13.353301,52.590926,0
                13.350255,52.590658,0
                13.347677,52.590116,0
                13.34988,52.588966,0
                13.357996,52.584444,0
                13.359263,52.583831,0
                13.363864,52.581274,0
                13.364003,52.581457,0
                13.3682,52.578928,0
                13.370948,52.577421,0
                13.375093,52.575737,0
                13.376468,52.574731,0
                13.379918,52.572526,0
                13.382292,52.572023,0
                13.382522,52.572042,0
                13.38307,52.572303,0
                13.388275,52.569467,0
                13.387781,52.569141,0
                13.389284,52.568259,0
                13.388489,52.567796,0
                13.389025,52.567397,0
                13.388886,52.566985,0
                13.393425,52.564432,0
                13.394629,52.563357,0
                13.396161,52.561623,0
                13.397071,52.558815,0
                13.397184,52.555841,0
                13.397917,52.552839,0
                13.397569,52.551523,0
                13.396696,52.550742,0
                13.398808,52.550909,0
                13.399187,52.548944,0
                13.400225,52.546459,0
                13.403319,52.540212,0
                13.399163,52.538977,0
                13.393353,52.53739,0
                13.390084,52.53537,0
                13.387719,52.533234,0
                13.383321,52.536835,0
                13.379645,52.540233,0
                13.37455,52.537087,0
                13.373033,52.538044,0
                13.368695,52.536062,0
                13.367914,52.536662,0
                13.365924,52.535678,0
                13.3682,52.533372,0
                13.369794,52.531973,0
                13.370953,52.530418,0
                13.37367,52.52777,0
                13.373836,52.526841,0
                13.373377,52.526478,0
                13.371016,52.526502,0
                13.370938,52.525266,0
                13.371775,52.524797,0
                13.371697,52.522814,0
                13.373215,52.522732,0
                13.375294,52.521935,0
                13.375975,52.521255,0
                13.37622,52.520223,0
                13.377004,52.519572,0
                13.376985,52.517975,0
                13.37739,52.516781,0
                13.376758,52.516325,0
                13.377577,52.515713,0
                13.376241,52.50966,0
                13.376598,52.508478,0
                13.377667,52.508088,0
                13.379028,52.507096,0
                13.379686,52.507028,0
                13.385586,52.507394,0
                13.397938,52.508057,0
                13.399243,52.508064,0
                13.400226,52.509388,0
                13.402669,52.508613,0
                13.404442,52.507784,0
                13.405235,52.508252,0
                13.408034,52.506207,0
                13.409943,52.506913,0
                13.411416,52.504871,0
                13.41406,52.504021,0
                13.414898,52.50487,0
                13.417575,52.504149,0
                13.41821,52.50497,0
                13.419483,52.505615,0
                13.421692,52.505023,0
                13.423533,52.504988,0
                13.4250481,52.5058476,0
              </coordinates>
            </LinearRing>
          </outerBoundaryIs>
        </Polygon>
      </MultiGeometry>
    </Placemark>
    <Placemark>
      <name>Linie</name>
      <styleUrl>#poly-990000-1000-119-nodesc</styleUrl>
      <MultiGeometry>
        <Polygon>
          <outerBoundaryIs>
            <LinearRing>
              <tessellate>1</tessellate>
              <coordinates>
                13.398969,52.556759,0
                13.399573,52.55524,0
                13.3994425,52.5580345,0
                13.398969,52.556759,0
              </coordinates>
            </LinearRing>
          </outerBoundaryIs>
        </Polygon>
        <Polygon>
          <outerBoundaryIs>
            <LinearRing>
              <tessellate>1</tessellate>
              <coordinates>
                13.398969,52.556759,0
                13.399036,52.557362,0
                13.399434,52.558217,0
                13.3994425,52.5580345,0
                13.399573,52.558386,0
                13.39933,52.558549,0
                13.400715,52.55997,0
                13.403688,52.561621,0
                13.403104,52.562004,0
                13.401855,52.561338,0
                13.400004,52.561178,0
                13.398355,52.561398,0
                13.397323,52.561795,0
                13.393666,52.564996,0
                13.39004,52.567372,0
                13.390677,52.568347,0
                13.389069,52.56923,0
                13.389331,52.569407,0
                13.384253,52.572227,0
                13.382746,52.572703,0
                13.382197,52.572489,0
                13.380754,52.57325,0
                13.378827,52.573814,0
                13.377161,52.574847,0
                13.376049,52.576146,0
                13.370902,52.578427,0
                13.359624,52.584297,0
                13.35453,52.587291,0
                13.349945,52.589895,0
                13.351533,52.590271,0
                13.35562,52.590209,0
                13.359265,52.590406,0
                13.36285,52.591425,0
                13.362868,52.592049,0
                13.364286,52.593028,0
                13.365077,52.594344,0
                13.36675,52.594442,0
                13.367561,52.596121,0
                13.369466,52.597306,0
                13.371807,52.599359,0
                13.374201,52.602274,0
                13.37536,52.604342,0
                13.375221,52.604443,0
                13.377729,52.607738,0
                13.378256,52.608698,0
                13.379021,52.611133,0
                13.377467,52.613308,0
                13.374725,52.618236,0
                13.373804,52.619745,0
                13.371729,52.622153,0
                13.371166,52.622316,0
                13.368064,52.62544,0
                13.367817,52.625906,0
                13.366887,52.625713,0
                13.367855,52.624055,0
                13.371507,52.619988,0
                13.375305,52.614296,0
                13.375731,52.613432,0
                13.376419,52.611056,0
                13.376494,52.609174,0
                13.376332,52.607709,0
                13.370343,52.599106,0
                13.363854,52.593981,0
                13.360793,52.591351,0
                13.359411,52.591181,0
                13.353301,52.590926,0
                13.350255,52.590658,0
                13.347677,52.590116,0
                13.34988,52.588966,0
                13.357996,52.584444,0
                13.359263,52.583831,0
                13.363864,52.581274,0
                13.364003,52.581457,0
                13.365826,52.580312,0
                13.370948,52.577421,0
                13.375093,52.575737,0
                13.376468,52.574731,0
                13.379918,52.572526,0
                13.382292,52.572023,0
                13.38307,52.572303,0
                13.388275,52.569467,0
                13.387781,52.569141,0
                13.389284,52.568259,0
                13.388489,52.567796,0
                13.388886,52.566985,0
                13.393425,52.564432,0
                13.394629,52.563357,0
                13.396161,52.561623,0
                13.397071,52.558815,0
                13.397184,52.555841,0
                13.397917,52.552839,0
                13.397569,52.551523,0
                13.396696,52.550742,0
                13.398808,52.550909,0
                13.399187,52.548944,0
                13.400225,52.546459,0
                13.403319,52.540212,0
                13.399163,52.538977,0
                13.393353,52.53739,0
                13.390084,52.53537,0
                13.387719,52.533234,0
                13.383321,52.536835,0
                13.379645,52.540233,0
                13.37455,52.537087,0
                13.373033,52.538044,0
                13.368695,52.536062,0
                13.367914,52.536662,0
                13.365924,52.535678,0
                13.3682,52.533372,0
                13.369794,52.531973,0
                13.370953,52.530418,0
                13.37367,52.52777,0
                13.373836,52.526841,0
                13.373377,52.526478,0
                13.371016,52.526502,0
                13.370938,52.525266,0
                13.371775,52.524797,0
                13.371697,52.522814,0
                13.373215,52.522732,0
                13.375294,52.521935,0
                13.375975,52.521255,0
                13.37622,52.520223,0
                13.377004,52.519572,0
                13.376985,52.517975,0
                13.37739,52.516781,0
                13.376758,52.516325,0
                13.377577,52.515713,0
                13.376241,52.50966,0
                13.376598,52.508478,0
                13.377667,52.508088,0
                13.379028,52.507096,0
                13.379686,52.507028,0
                13.385586,52.507394,0
                13.397938,52.508057,0
                13.399243,52.508064,0
                13.400226,52.509388,0
                13.404543,52.507933,0
                13.405235,52.508252,0
                13.408034,52.506207,0
                13.409943,52.506913,0
                13.411416,52.504871,0
                13.41406,52.504021,0
                13.414898,52.50487,0
                13.417575,52.504149,0
                13.41821,52.50497,0
                13.419483,52.505615,0
                13.421692,52.505023,0
                13.424616,52.50509,0
                13.426625,52.505748,0
                13.427105,52.505625,0
                13.429299,52.508506,0
                13.435318,52.505656,0
                13.437124,52.504507,0
                13.438429,52.503922,0
                13.44134,52.502943,0
                13.446725,52.500449,0
                13.449658,52.499516,0
                13.450557,52.498723,0
                13.451406,52.498967,0
                13.453363,52.497574,0
                13.451377,52.497358,0
                13.448149,52.495071,0
                13.4474,52.494691,0
                13.445024,52.494482,0
                13.440076,52.490668,0
                13.439707,52.48984,0
                13.444399,52.487411,0
                13.446718,52.488928,0
                13.450262,52.487105,0
                13.450419,52.4872,0
                13.456102,52.48424,0
                13.458211,52.48578,0
                13.461224,52.483688,0
                13.461112,52.483613,0
                13.470631,52.476875,0
                13.469621,52.473714,0
                13.470566,52.472455,0
                13.475318,52.467825,0
                13.47647,52.467101,0
                13.478455,52.465135,0
                13.478574,52.463953,0
                13.477187,52.461944,0
                13.475869,52.460948,0
                13.474963,52.459468,0
                13.474905,52.458762,0
                13.457411,52.459272,0
                13.457576,52.458303,0
                13.459321,52.456019,0
                13.461514,52.452804,0
                13.46267,52.451356,0
                13.46436,52.449887,0
                13.467199,52.448302,0
                13.484193,52.440083,0
                13.484683,52.439973,0
                13.489091,52.437803,0
                13.489424,52.437517,0
                13.494525,52.435014,0
                13.494859,52.434939,0
                13.506971,52.429032,0
                13.508826,52.42838,0
                13.512843,52.427386,0
                13.516421,52.426906,0
                13.520631,52.426518,0
                13.519649,52.424572,0
                13.518464,52.422879,0
                13.518686,52.422217,0
                13.520608,52.420781,0
                13.520875,52.419585,0
                13.522198,52.418441,0
                13.522155,52.417186,0
                13.523016,52.415484,0
                13.522249,52.41446,0
                13.524048,52.413578,0
                13.523214,52.412675,0
                13.523527,52.411694,0
                13.521752,52.40745,0
                13.520659,52.406245,0
                13.519028,52.40512,0
                13.518751,52.404653,0
                13.516572,52.403279,0
                13.516914,52.4028,0
                13.515914,52.401774,0
                13.517102,52.401513,0
                13.522095,52.405802,0
                13.521594,52.406172,0
                13.522616,52.407618,0
                13.523385,52.409786,0
                13.523922,52.409743,0
                13.525134,52.41339,0
                13.524736,52.413506,0
                13.523866,52.418177,0
                13.52123,52.420218,0
                13.520967,52.421048,0
                13.519231,52.422732,0
                13.521976,52.426449,0
                13.52175,52.42696,0
                13.516672,52.427251,0
                13.514718,52.427451,0
                13.511392,52.428038,0
                13.508225,52.428947,0
                13.506839,52.429551,0
                13.495206,52.43528,0
                13.484814,52.44025,0
                13.47348,52.445797,0
                13.46631,52.449155,0
                13.464367,52.450257,0
                13.46351,52.451131,0
                13.460403,52.455229,0
                13.457745,52.459019,0
                13.474514,52.458427,0
                13.478669,52.458349,0
                13.47923,52.459234,0
                13.478813,52.459674,0
                13.476745,52.459849,0
                13.476085,52.460317,0
                13.477039,52.461446,0
                13.477965,52.461547,0
                13.479391,52.461169,0
                13.478561,52.461835,0
                13.478349,52.462894,0
                13.478947,52.463735,0
                13.4795,52.463847,0
                13.479397,52.46513,0
                13.479016,52.465578,0
                13.47481,52.468885,0
                13.47488,52.468959,0
                13.470411,52.473378,0
                13.47022,52.474112,0
                13.470875,52.475707,0
                13.471031,52.477121,0
                13.464506,52.481674,0
                13.464595,52.481812,0
                13.458144,52.486221,0
                13.456584,52.485628,0
                13.455529,52.484858,0
                13.450739,52.487233,0
                13.451155,52.487626,0
                13.448138,52.489369,0
                13.447367,52.489637,0
                13.444898,52.487995,0
                13.443682,52.488281,0
                13.440507,52.489972,0
                13.444808,52.493958,0
                13.445193,52.493824,0
                13.446326,52.494483,0
                13.447214,52.493853,0
                13.448281,52.494486,0
                13.449312,52.493882,0
                13.4513,52.494844,0
                13.452744,52.496173,0
                13.453912,52.495895,0
                13.454332,52.49631,0
                13.453059,52.496804,0
                13.453619,52.49755,0
                13.456271,52.497137,0
                13.4563,52.499156,0
                13.44948,52.501192,0
                13.449668,52.501346,0
                13.445375,52.502682,0
                13.445524,52.502858,0
                13.439834,52.504873,0
                13.437952,52.505819,0
                13.435241,52.507949,0
                13.432542,52.508592,0
                13.427986,52.51046,0
                13.425972,52.510249,0
                13.428161,52.508747,0
                13.427452,52.507364,0
                13.426224,52.506203,0
                13.423944,52.505514,0
                13.422205,52.5055,0
                13.419818,52.506054,0
                13.418214,52.506064,0
                13.416971,52.505575,0
                13.414306,52.505279,0
                13.413386,52.50456,0
                13.412177,52.504981,0
                13.413306,52.506541,0
                13.412555,52.507539,0
                13.411455,52.506646,0
                13.409669,52.507622,0
                13.408379,52.506921,0
                13.406285,52.509098,0
                13.405294,52.508494,0
                13.404719,52.508959,0
                13.405118,52.509414,0
                13.401662,52.509624,0
                13.401337,52.50977,0
                13.398783,52.50951,0
                13.397075,52.508164,0
                13.39026,52.507834,0
                13.382479,52.507398,0
                13.37902,52.50741,0
                13.377805,52.508357,0
                13.378033,52.509149,0
                13.379902,52.510453,0
                13.379588,52.512297,0
                13.380598,52.512469,0
                13.37932,52.515843,0
                13.379806,52.515879,0
                13.379684,52.516949,0
                13.377752,52.516972,0
                13.377422,52.517806,0
                13.377578,52.519166,0
                13.380145,52.518868,0
                13.380406,52.519743,0
                13.37799,52.519951,0
                13.378089,52.52047,0
                13.37753,52.521794,0
                13.378299,52.522076,0
                13.377203,52.52277,0
                13.376687,52.523354,0
                13.375622,52.524392,0
                13.374047,52.525251,0
                13.374028,52.525964,0
                13.374866,52.527072,0
                13.37462,52.527948,0
                13.376466,52.528399,0
                13.37624,52.528666,0
                13.374095,52.528053,0
                13.372524,52.529619,0
                13.371818,52.531493,0
                13.370002,52.533125,0
                13.370231,52.533239,0
                13.368595,52.534598,0
                13.369117,52.535577,0
                13.37284,52.537381,0
                13.374277,52.536665,0
                13.375456,52.536461,0
                13.37761,52.537187,0
                13.376867,52.537697,0
                13.377041,52.53813,0
                13.37929,52.539418,0
                13.379657,52.539218,0
                13.380688,52.53695,0
                13.381549,52.53575,0
                13.382055,52.535962,0
                13.388462,52.531749,0
                13.389113,52.532201,0
                13.388687,52.532759,0
                13.390751,52.535011,0
                13.392845,52.536258,0
                13.393877,52.537184,0
                13.395264,52.537451,0
                13.402199,52.539394,0
                13.404547,52.539976,0
                13.404282,52.542178,0
                13.403639,52.544134,0
                13.402069,52.546519,0
                13.401311,52.546557,0
                13.400238,52.549492,0
                13.400013,52.55068,0
                13.39913,52.553238,0
                13.39906,52.553704,0
                13.402569,52.553756,0
                13.402547,52.554781,0
                13.398904,52.554999,0
                13.399077,52.55524,0
                13.398969,52.556759,0
              </coordinates>
            </LinearRing>
          </outerBoundaryIs>
        </Polygon>
      </MultiGeometry>
    </Placemark>
    <Placemark>
      <name>Path</name>
      <styleUrl>#line-000000-1000-nodesc</styleUrl>
      <LineString>
        <tessellate>1</tessellate>
        <coordinates>
          13.367815,52.625295,0
          13.356065,52.623521,0
          13.345665,52.623538,0
          13.335932,52.623254,0
          13.326534,52.625872,0
          13.31146,52.628123,0
          13.309782,52.629178,0
          13.3064,52.62788,0
          13.305017,52.628072,0
          13.306242,52.628739,0
          13.309708,52.629677,0
          13.309622,52.63244,0
          13.305402,52.637045,0
          13.307194,52.637476,0
          13.30597,52.639218,0
          13.308314,52.64048,0
          13.309555,52.643621,0
          13.301322,52.653654,0
          13.309723,52.657231,0
          13.307474,52.659567,0
          13.295256,52.659328,0
          13.282824,52.660719,0
          13.281692,52.652684,0
          13.285164,52.652484,0
          13.2835,52.641156,0
          13.269924,52.639514,0
          13.262103,52.640641,0
          13.264396,52.636595,0
          13.264602,52.627398,0
          13.242841,52.62796,0
          13.228655,52.627332,0
          13.224762,52.628189,0
          13.220208,52.628283,0
          13.219726,52.62447,0
          13.206275,52.608819,0
          13.201302,52.606933,0
          13.201418,52.604445,0
          13.207875,52.59893,0
          13.219022,52.591603,0
          13.215882,52.585677,0
          13.206121,52.586505,0
          13.199233,52.588874,0
          13.191579,52.590275,0
          13.184208,52.593654,0
          13.174303,52.594995,0
          13.164498,52.598677,0
          13.156928,52.597667,0
          13.149623,52.592024,0
          13.140075,52.589213,0
          13.132652,52.586764,0
          13.129053,52.58703,0
          13.12803,52.583509,0
          13.130111,52.58322,0
          13.132011,52.579415,0
          13.141482,52.581121,0
          13.149601,52.583033,0
          13.153492,52.57722,0
          13.150979,52.567804,0
          13.147257,52.564175,0
          13.147401,52.561972,0
          13.145976,52.560459,0
          13.146779,52.557806,0
          13.1474,52.554448,0
          13.143548,52.551955,0
          13.135022,52.552797,0
          13.130392,52.556098,0
          13.123792,52.539003,0
          13.119287,52.529219,0
          13.117812,52.517004,0
          13.127217,52.517408,0
          13.143402,52.519899,0
          13.145866,52.517544,0
          13.14745,52.51699,0
          13.16836,52.509177,0
          13.148361,52.495562,0
          13.133632,52.483825,0
          13.127128,52.479016,0
          13.118679,52.477291,0
          13.115292,52.470692,0
          13.110878,52.465846,0
          13.110429,52.459783,0
          13.112669,52.458766,0
          13.11204,52.454452,0
          13.109245,52.450646,0
          13.114891,52.446261,0
          13.118909,52.444558,0
          13.123673,52.440434,0
          13.116944,52.435672,0
          13.104695,52.424088,0
          13.099243,52.425472,0
          13.095995,52.421899,0
          13.088213,52.419609,0
          13.091074,52.411345,0
          13.097647,52.409348,0
          13.098173,52.411176,0
          13.096487,52.412793,0
          13.100674,52.413501,0
          13.101637,52.409715,0
          13.107231,52.409887,0
          13.107271,52.413202,0
          13.110419,52.41253,0
          13.111317,52.409746,0
          13.109556,52.40874,0
          13.107585,52.409086,0
          13.108897,52.408191,0
          13.108279,52.406999,0
          13.112623,52.403522,0
          13.117802,52.401849,0
          13.124318,52.396809,0
          13.128134,52.396667,0
          13.133726,52.399097,0
          13.13828,52.397747,0
          13.135086,52.397079,0
          13.135926,52.396196,0
          13.138471,52.396174,0
          13.130986,52.391692,0
          13.127858,52.391528,0
          13.127356,52.389025,0
          13.13115,52.387285,0
          13.133354,52.387278,0
          13.134413,52.388595,0
          13.130896,52.390391,0
          13.137917,52.395341,0
          13.142437,52.396674,0
          13.145857,52.395571,0
          13.158969,52.393991,0
          13.16842,52.394511,0
          13.172015,52.395729,0
          13.171006,52.397589,0
          13.157805,52.396644,0
          13.159007,52.402648,0
          13.196807,52.41537,0
          13.205002,52.415874,0
          13.224258,52.420851,0
          13.246193,52.421018,0
          13.249064,52.413402,0
          13.249662,52.405223,0
          13.259071,52.406308,0
          13.264386,52.40477,0
          13.270365,52.403992,0
          13.27753,52.405546,0
          13.297755,52.41642,0
          13.297643,52.415145,0
          13.296283,52.414344,0
          13.31016,52.40116,0
          13.312049,52.399108,0
          13.316353,52.401575,0
          13.342865,52.411594,0
          13.343362,52.407822,0
          13.351106,52.402723,0
          13.359503,52.398314,0
          13.371949,52.393619,0
          13.370293,52.388511,0
          13.386999,52.388466,0
          13.388192,52.377808,0
          13.420943,52.375963,0
          13.427718,52.3859,0
          13.418466,52.407285,0
          13.419084,52.410024,0
          13.431153,52.412365,0
          13.443106,52.415656,0
          13.452582,52.41863,0
          13.462574,52.421023,0
          13.467591,52.420056,0
          13.477612,52.402627,0
          13.479708,52.396093,0
          13.511946,52.400781,0
          13.516745,52.401809,0
        </coordinates>
      </LineString>
    </Placemark>
    <Placemark>
      <name>Flaeche</name>
      <styleUrl>#poly-CC0000-1000-119-nodesc</styleUrl>
      <MultiGeometry>
        <Polygon>
          <outerBoundaryIs>
            <LinearRing>
              <tessellate>1</tessellate>
              <coordinates>
                13.146493,52.558446,0
                13.1458908,52.5597253,0
                13.1465489,52.5575787,0
                13.146493,52.558446,0
              </coordinates>
            </LinearRing>
          </outerBoundaryIs>
        </Polygon>
        <Polygon>
          <outerBoundaryIs>
            <LinearRing>
              <tessellate>1</tessellate>
              <coordinates>
                13.1930914667676,52.5900396921674,0
                13.200115,52.588892,0
                13.205288,52.586979,0
                13.211125,52.586009,0
                13.216358,52.585784,0
                13.218853,52.590745,0
                13.21754,52.593269,0
                13.207328,52.599359,0
                13.201339,52.605327,0
                13.201457,52.606966,0
                13.20624,52.608773,0
                13.214776,52.619076,0
                13.216746,52.620128,0
                13.219924,52.624609,0
                13.220554,52.628244,0
                13.225989,52.628186,0
                13.230539,52.627328,0
                13.242627,52.628299,0
                13.245924,52.627339,0
                13.252065,52.627343,0
                13.259622,52.62797,0
                13.264342,52.626883,0
                13.265068,52.634731,0
                13.262237,52.639365,0
                13.262328,52.640701,0
                13.269726,52.639732,0
                13.28378,52.641115,0
                13.2841007067166,52.6438771085711,0
                13.285106,52.652533,0
                13.281904,52.652677,0
                13.282715,52.660788,0
                13.287152,52.659986,0
                13.302134,52.65924,0
                13.307146,52.659662,0
                13.310166,52.657399,0
                13.300885,52.653431,0
                13.309494,52.642708,0
                13.3086308382269,52.6410811215045,0
                13.308096,52.640073,0
                13.306354,52.639498,0
                13.305787,52.636989,0
                13.309465,52.63246,0
                13.310357,52.630053,0
                13.302875,52.627403,0
                13.312981,52.628281,0
                13.319396,52.626775,0
                13.328804,52.625487,0
                13.336737,52.622698,0
                13.351369,52.624056,0
                13.351748,52.622665,0
                13.354805,52.623772,0
                13.357587,52.62307,0
                13.359773,52.624111,0
                13.367836,52.625788,0
                13.366262,52.627019,0
                13.359699,52.626951,0
                13.355463,52.627617,0
                13.351019,52.62644,0
                13.346866,52.626454,0
                13.341547,52.62769,0
                13.337265,52.627642,0
                13.332534,52.624637,0
                13.328813,52.625977,0
                13.313204,52.628526,0
                13.30316,52.627466,0
                13.310592,52.629678,0
                13.310042,52.632167,0
                13.307626,52.635154,0
                13.307713,52.639142,0
                13.308810779874,52.6410605914062,0
                13.310593,52.644175,0
                13.305247,52.649475,0
                13.302157,52.65322,0
                13.309583,52.656258,0
                13.310737,52.657857,0
                13.307924,52.660106,0
                13.28621,52.66081,0
                13.281814,52.661411,0
                13.281166,52.652533,0
                13.283582,52.650023,0
                13.283071,52.64457,0
                13.2826311602951,52.6440444378732,0
                13.281491,52.642682,0
                13.276074,52.640912,0
                13.269823,52.640066,0
                13.261518,52.64111,0
                13.263861,52.631631,0
                13.26313,52.628544,0
                13.248841,52.628188,0
                13.242802,52.628826,0
                13.241056,52.630912,0
                13.241866,52.636541,0
                13.24515,52.63869,0
                13.245868,52.644304,0
                13.243317,52.646519,0
                13.2437311746074,52.648466694776,0
                13.243828,52.648922,0
                13.241903,52.64916,0
                13.2418191849487,52.6486837035411,0
                13.23945,52.635216,0
                13.240436,52.634962,0
                13.239886,52.629489,0
                13.238942,52.628621,0
                13.228539,52.627903,0
                13.225162,52.628903,0
                13.218455,52.62867,0
                13.214112,52.629916,0
                13.215027,52.625592,0
                13.213231,52.622446,0
                13.204811,52.613944,0
                13.203791,52.611502,0
                13.2033340825854,52.6111134838515,0
                13.199654,52.607984,0
                13.198946,52.603857,0
                13.1994171855182,52.6030571159977,0
                13.201616,52.599324,0
                13.203774,52.597399,0
                13.208922,52.59556,0
                13.212896,52.592795,0
                13.213119,52.588087,0
                13.207337,52.588366,0
                13.206894,52.587577,0
                13.201328,52.589199,0
                13.193828,52.590659,0
                13.1934605719323,52.5907994795676,0
                13.184884,52.594078,0
                13.174681,52.596036,0
                13.164602,52.599411,0
                13.155301,52.597917,0
                13.147659,52.592056,0
                13.134351,52.588337,0
                13.125869,52.588354,0
                13.128193,52.587127,0
                13.126923,52.583198,0
                13.131085,52.579488,0
                13.138347,52.57164,0
                13.148854,52.567806,0
                13.1492,52.566585,0
                13.146593,52.564105,0
                13.145296,52.560989,0
                13.1458908,52.5597253,0
                13.145642,52.560537,0
                13.147118,52.561516,0
                13.147516,52.564397,0
                13.149894,52.566948,0
                13.153252,52.573245,0
                13.153424,52.577551,0
                13.14966,52.583229,0
                13.139176,52.580417,0
                13.132599,52.579659,0
                13.130589,52.582743,0
                13.128062,52.583169,0
                13.129341,52.585931,0
                13.128579,52.587214,0
                13.13586,52.587402,0
                13.138026,52.588731,0
                13.143475,52.589653,0
                13.149196,52.591789,0
                13.154699,52.596582,0
                13.156642,52.5975,0
                13.164548,52.598785,0
                13.167496,52.597147,0
                13.173737,52.595344,0
                13.178185,52.594895,0
                13.184358,52.593449,0
                13.191596,52.590284,0
                13.1930914667676,52.5900396921674,0
              </coordinates>
            </LinearRing>
          </outerBoundaryIs>
        </Polygon>
        <Polygon>
          <outerBoundaryIs>
            <LinearRing>
              <tessellate>1</tessellate>
              <coordinates>
                13.1556789136566,52.5128846904766,0
                13.164514,52.509445,0
                13.164307,52.507265,0
                13.157953,52.50323,0
                13.148983,52.496979,0
                13.1474009890924,52.495775037503,0
                13.135526,52.486735,0
                13.133045,52.485468,0
                13.129031,52.480882,0
                13.126565,52.479691,0
                13.117485,52.478395,0
                13.114064,52.476692,0
                13.110064,52.471781,0
                13.10637,52.464146,0
                13.106562,52.461269,0
                13.10543,52.458208,0
                13.110736,52.456885,0
                13.110547,52.453657,0
                13.108129,52.450771,0
                13.118271,52.443022,0
                13.114863,52.441858,0
                13.113681,52.44003,0
                13.109932,52.438615,0
                13.105221,52.43553,0
                13.106061,52.433066,0
                13.102529,52.433415,0
                13.099581,52.431005,0
                13.098649,52.427041,0
                13.095362,52.42456,0
                13.087108,52.419887,0
                13.087228,52.417209,0
                13.089635,52.411273,0
                13.092163,52.409314,0
                13.095359,52.408375,0
                13.101375,52.407829,0
                13.1045052136308,52.4068907058827,0
                13.107543,52.40598,0
                13.111338,52.403014,0
                13.115892,52.401336,0
                13.125237,52.395267,0
                13.12831,52.395279,0
                13.133386,52.397225,0
                13.135286,52.395071,0
                13.131321,52.392309,0
                13.126832,52.39175,0
                13.126359,52.389278,0
                13.130692,52.386914,0
                13.134804,52.386693,0
                13.134819,52.390167,0
                13.132616,52.39092,0
                13.136745,52.393991,0
                13.142588,52.395865,0
                13.144448,52.395239,0
                13.159021,52.393371,0
                13.16765,52.393735,0
                13.172459,52.394332,0
                13.172778,52.398552,0
                13.170481,52.400885,0
                13.169964,52.404465,0
                13.195271,52.412073,0
                13.224586,52.420308,0
                13.227623,52.419803,0
                13.243542,52.420412,0
                13.24632,52.41818,0
                13.24792,52.412768,0
                13.247194,52.406854,0
                13.248076,52.404277,0
                13.256836,52.405486,0
                13.266418,52.40318,0
                13.273901,52.402732,0
                13.280072,52.404522,0
                13.291992,52.41028,0
                13.296624,52.412148,0
                13.30045,52.409319,0
                13.311919,52.398449,0
                13.317622,52.401013,0
                13.33959,52.409191,0
                13.358891,52.396815,0
                13.367853,52.393235,0
                13.369685,52.390968,0
                13.369731,52.387694,0
                13.376281,52.38721,0
                13.385926,52.387061,0
                13.387848,52.377217,0
                13.399446,52.377106,0
                13.404631,52.375863,0
                13.420285,52.375192,0
                13.424048,52.376431,0
                13.42568,52.379284,0
                13.425845,52.381746,0
                13.42792,52.384773,0
                13.42836,52.385497,0
                13.428509,52.386939,0
                13.419938,52.406877,0
                13.420068,52.409149,0
                13.43708,52.412941,0
                13.436849,52.413472,0
                13.450725,52.417565,0
                13.462981,52.420153,0
                13.466403,52.419485,0
                13.476385,52.40266,0
                13.478971,52.39495,0
                13.501201,52.398543,0
                13.508434,52.399443,0
                13.516593,52.401161,0
                13.513676,52.401044,0
                13.49041,52.397724,0
                13.479868,52.395957,0
                13.477617,52.402833,0
                13.471458,52.412971,0
                13.467882,52.41997,0
                13.463051,52.421,0
                13.454578,52.419339,0
                13.445648,52.416208,0
                13.432095,52.412532,0
                13.418774,52.409951,0
                13.41935,52.405031,0
                13.427071,52.387711,0
                13.427446,52.385723,0
                13.42084,52.376112,0
                13.412767,52.376357,0
                13.398389,52.377433,0
                13.388434,52.377718,0
                13.387257,52.388485,0
                13.378564,52.388078,0
                13.370432,52.388442,0
                13.371989,52.393752,0
                13.35952,52.39839,0
                13.350827,52.402911,0
                13.343093,52.407669,0
                13.343217,52.411706,0
                13.321596,52.403603,0
                13.313909,52.400537,0
                13.311972,52.399132,0
                13.306936,52.404358,0
                13.296011,52.414499,0
                13.296795,52.416173,0
                13.280845,52.40759,0
                13.276162,52.405342,0
                13.272176,52.404337,0
                13.266256,52.404312,0
                13.261127,52.405935,0
                13.257094,52.406395,0
                13.249696,52.405002,0
                13.24908,52.411604,0
                13.247093,52.418831,0
                13.245925,52.421104,0
                13.235832,52.42076,0
                13.233165,52.420257,0
                13.224977,52.420991,0
                13.217033,52.419121,0
                13.209217,52.416637,0
                13.201139,52.415537,0
                13.196778,52.415406,0
                13.185679,52.41137,0
                13.159342,52.402883,0
                13.159257,52.399789,0
                13.157882,52.396297,0
                13.171163,52.397704,0
                13.171603,52.395659,0
                13.168744,52.39439,0
                13.159312,52.39393,0
                13.145787,52.395452,0
                13.143204,52.397227,0
                13.134359,52.393236,0
                13.130554,52.390383,0
                13.134076,52.38877,0
                13.131255,52.387165,0
                13.127022,52.389531,0
                13.127484,52.391547,0
                13.131115,52.391747,0
                13.138719,52.395945,0
                13.135741,52.39615,0
                13.135189,52.397367,0
                13.13813,52.39785,0
                13.13383,52.399235,0
                13.127879,52.396519,0
                13.124844,52.396878,0
                13.120473,52.399498,0
                13.117921,52.402004,0
                13.111723,52.403982,0
                13.107029,52.40941,0
                13.110685,52.409495,0
                13.111778,52.410456,0
                13.109766,52.412749,0
                13.1074988793194,52.4131060380646,0
                13.10708,52.413172,0
                13.1070476965789,52.412169426957,0
                13.106974,52.409882,0
                13.1059966937948,52.4099874873495,0
                13.101099,52.410516,0
                13.10057,52.413729,0
                13.096541,52.413035,0
                13.098025,52.411248,0
                13.097311,52.409403,0
                13.090835,52.41152,0
                13.088337,52.419453,0
                13.095727,52.421747,0
                13.098385,52.424649,0
                13.100191,52.425316,0
                13.104831,52.423857,0
                13.108447,52.426644,0
                13.117422,52.436048,0
                13.1191044630923,52.4371838356443,0
                13.124118,52.440568,0
                13.1217166081642,52.4425994023358,0
                13.119362,52.444591,0
                13.115497,52.445722,0
                13.115102,52.447729,0
                13.109246,52.450815,0
                13.111574,52.45425,0
                13.112202,52.459165,0
                13.110461,52.460151,0
                13.111243,52.463864,0
                13.110569,52.465842,0
                13.113797,52.468717,0
                13.117815,52.474755,0
                13.117838,52.477323,0
                13.126349,52.478617,0
                13.128555,52.479801,0
                13.1464502867245,52.4938091397175,0
                13.149446,52.496153,0
                13.168626,52.509266,0
                13.157163,52.513191,0
                13.1560451757376,52.5136413970632,0
                13.147425,52.517114,0
                13.142709,52.519674,0
                13.126516,52.517448,0
                13.117539,52.517122,0
                13.11886,52.5219,0
                13.119187,52.528532,0
                13.120222,52.53207,0
                13.123481,52.537188,0
                13.125121,52.543755,0
                13.130522,52.555934,0
                13.136399,52.552601,0
                13.145278,52.552548,0
                13.14724,52.555324,0
                13.1465489,52.5575787,0
                13.146716,52.554985,0
                13.145225,52.553041,0
                13.134855,52.553804,0
                13.129784,52.556954,0
                13.128143,52.555209,0
                13.12569,52.54735,0
                13.122551,52.541283,0
                13.121725,52.537602,0
                13.118325,52.529595,0
                13.117835,52.521748,0
                13.116598,52.517287,0
                13.117207,52.5165,0
                13.126541,52.516904,0
                13.142172,52.518959,0
                13.143624,52.517576,0
                13.1556789136566,52.5128846904766,0
              </coordinates>
            </LinearRing>
          </outerBoundaryIs>
        </Polygon>
      </MultiGeometry>
    </Placemark>
  </Document>
</kml>
